CTC2_L_00671001-01
1 24459U 24590SM  26070.40853009  .00000000  00000+0  00000-0 0  9997
2 24459  60.0000   0.0000 0000000   0.0000   0.0000  1.97017143    16
CTC2_L_00671001-02
1 24460U 23941TY  26070.40853009  .00000000  00000+0  00000-0 0  9998
2 24460  60.0000   0.0000 0000000   0.0000  36.0000  1.97017143    17
CTC2_L_00671001-03
1 24461U 22188TG  26070.40853009  .00000000  00000+0  00000-0 0  9991
2 24461  60.0000   0.0000 0000000   0.0000  72.0000  1.97017143    18
CTC2_L_00671001-04
1 24462U 23024JG  26070.40853009  .00000000  00000+0  00000-0 0  9992
2 24462  60.0000   0.0000 0000000   0.0000 108.0000  1.97017143    19
CTC2_L_00671001-05
1 24463U 22658CG  26070.40853009  .00000000  00000+0  00000-0 0  9995
2 24463  60.0000   0.0000 0000000   0.0000 144.0000  1.97017143    10
CTC2_L_00671001-06
1 24464U 26646LV  26070.40853009  .00000000  00000+0  00000-0 0  9997
2 24464  60.0000   0.0000 0000000   0.0000 180.0000  1.97017143    11
CTC2_L_00671001-07
1 24465U 22828PS  26070.40853009  .00000000  00000+0  00000-0 0  9996
2 24465  60.0000   0.0000 0000000   0.0000 216.0000  1.97017143    12
CTC2_L_00671001-08
1 24466U 25886YN  26070.40853009  .00000000  00000+0  00000-0 0  9994
2 24466  60.0000   0.0000 0000000   0.0000 252.0000  1.97017143    13
CTC2_L_00671001-09
1 24467U 26114ZT  26070.40853009  .00000000  00000+0  00000-0 0  9990
2 24467  60.0000   0.0000 0000000   0.0000 288.0000  1.97017143    13
CTC2_L_00671001-10
1 24468U 23687DU  26070.40853009  .00000000  00000+0  00000-0 0  9993
2 24468  60.0000   0.0000 0000000   0.0000 324.0000  1.97017143    15
CTC2_L_00671002-01
1 24469U 24256BE  26070.40853009  .00000000  00000+0  00000-0 0  9997
2 24469  60.0000  30.0000 0000000   0.0000  12.0000  1.97017143    13
CTC2_L_00671002-02
1 24470U 24067RV  26070.40853009  .00000000  00000+0  00000-0 0  9999
2 24470  60.0000  30.0000 0000000   0.0000  48.0000  1.97017143    14
CTC2_L_00671002-03
1 24471U 22885LN  26070.40853009  .00000000  00000+0  00000-0 0  9996
2 24471  60.0000  30.0000 0000000   0.0000  84.0000  1.97017143    15
CTC2_L_00671002-04
1 24472U 22187YK  26070.40853009  .00000000  00000+0  00000-0 0  9992
2 24472  60.0000  30.0000 0000000   0.0000 120.0000  1.97017143    17
CTC2_L_00671002-05
1 24473U 25823ED  26070.40853009  .00000000  00000+0  00000-0 0  9993
2 24473  60.0000  30.0000 0000000   0.0000 156.0000  1.97017143    17
CTC2_L_00671002-06
1 24474U 24995FS  26070.40853009  .00000000  00000+0  00000-0 0  9993
2 24474  60.0000  30.0000 0000000   0.0000 192.0000  1.97017143    18
CTC2_L_00671002-07
1 24475U 24672IL  26070.40853009  .00000000  00000+0  00000-0 0  9996
2 24475  60.0000  30.0000 0000000   0.0000 228.0000  1.97017143    19
CTC2_L_00671002-08
1 24476U 24067ZY  26070.40853009  .00000000  00000+0  00000-0 0  9995
2 24476  60.0000  30.0000 0000000   0.0000 264.0000  1.97017143    10
CTC2_L_00671002-09
1 24477U 23434JZ  26070.40853009  .00000000  00000+0  00000-0 0  9993
2 24477  60.0000  30.0000 0000000   0.0000 300.0000  1.97017143    12
CTC2_L_00671002-10
1 24478U 25782HP  26070.40853009  .00000000  00000+0  00000-0 0  9992
2 24478  60.0000  30.0000 0000000   0.0000 336.0000  1.97017143    12
CTC2_L_00671003-01
1 24479U 26846TH  26070.40853009  .00000000  00000+0  00000-0 0  9995
2 24479  60.0000  60.0000 0000000   0.0000  24.0000  1.97017143    10
CTC2_L_00671003-02
1 24480U 22970RE  26070.40853009  .00000000  00000+0  00000-0 0  9991
2 24480  60.0000  60.0000 0000000   0.0000  60.0000  1.97017143    12
CTC2_L_00671003-03
1 24481U 24361KB  26070.40853009  .00000000  00000+0  00000-0 0  9998
2 24481  60.0000  60.0000 0000000   0.0000  96.0000  1.97017143    12
CTC2_L_00671003-04
1 24482U 23044AZ  26070.40853009  .00000000  00000+0  00000-0 0  9996
2 24482  60.0000  60.0000 0000000   0.0000 132.0000  1.97017143    14
CTC2_L_00671003-05
1 24483U 25167ZW  26070.40853009  .00000000  00000+0  00000-0 0  9995
2 24483  60.0000  60.0000 0000000   0.0000 168.0000  1.97017143    14
CTC2_L_00671003-06
1 24484U 23051UT  26070.40853009  .00000000  00000+0  00000-0 0  9996
2 24484  60.0000  60.0000 0000000   0.0000 204.0000  1.97017143    16
CTC2_L_00671003-07
1 24485U 24155KM  26070.40853009  .00000000  00000+0  00000-0 0  9993
2 24485  60.0000  60.0000 0000000   0.0000 240.0000  1.97017143    17
CTC2_L_00671003-08
1 24486U 26215VR  26070.40853009  .00000000  00000+0  00000-0 0  9993
2 24486  60.0000  60.0000 0000000   0.0000 276.0000  1.97017143    17
CTC2_L_00671003-09
1 24487U 23639FA  26070.40853009  .00000000  00000+0  00000-0 0  9991
2 24487  60.0000  60.0000 0000000   0.0000 312.0000  1.97017143    19
CTC2_L_00671003-10
1 24488U 22101XH  26070.40853009  .00000000  00000+0  00000-0 0  9995
2 24488  60.0000  60.0000 0000000   0.0000 348.0000  1.97017143    19
CTC2_L_00671004-01
1 24489U 22954OS  26070.40853009  .00000000  00000+0  00000-0 0  9992
2 24489  60.0000  90.0000 0000000   0.0000  36.0000  1.97017143    17
CTC2_L_00671004-02
1 24490U 25364HF  26070.40853009  .00000000  00000+0  00000-0 0  9992
2 24490  60.0000  90.0000 0000000   0.0000  72.0000  1.97017143    19
CTC2_L_00671004-03
1 24491U 22768YT  26070.40853009  .00000000  00000+0  00000-0 0  9998
2 24491  60.0000  90.0000 0000000   0.0000 108.0000  1.97017143    10
CTC2_L_00671004-04
1 24492U 23121QD  26070.40853009  .00000000  00000+0  00000-0 0  9993
2 24492  60.0000  90.0000 0000000   0.0000 144.0000  1.97017143    11
CTC2_L_00671004-05
1 24493U 25172BA  26070.40853009  .00000000  00000+0  00000-0 0  9992
2 24493  60.0000  90.0000 0000000   0.0000 180.0000  1.97017143    12
CTC2_L_00671004-06
1 24494U 23480JH  26070.40853009  .00000000  00000+0  00000-0 0  9993
2 24494  60.0000  90.0000 0000000   0.0000 216.0000  1.97017143    13
CTC2_L_00671004-07
1 24495U 25365RS  26070.40853009  .00000000  00000+0  00000-0 0  9998
2 24495  60.0000  90.0000 0000000   0.0000 252.0000  1.97017143    14
CTC2_L_00671004-08
1 24496U 26578PU  26070.40853009  .00000000  00000+0  00000-0 0  9996
2 24496  60.0000  90.0000 0000000   0.0000 288.0000  1.97017143    14
CTC2_L_00671004-09
1 24497U 25517MQ  26070.40853009  .00000000  00000+0  00000-0 0  9999
2 24497  60.0000  90.0000 0000000   0.0000 324.0000  1.97017143    16
CTC2_L_00671004-10
1 24498U 26451HN  26070.40853009  .00000000  00000+0  00000-0 0  9998
2 24498  60.0000  90.0000 0000000   0.0000   0.0000  1.97017143    18
CTC2_L_00671005-01
1 24499U 24273LL  26070.40853009  .00000000  00000+0  00000-0 0  9999
2 24499  60.0000 120.0000 0000000   0.0000  48.0000  1.97017143    15
CTC2_L_00671005-02
1 24500U 24238AH  26070.40853009  .00000000  00000+0  00000-0 0  9993
2 24500  60.0000 120.0000 0000000   0.0000  84.0000  1.97017143    18
CTC2_L_00671005-03
1 24501U 22869GQ  26070.40853009  .00000000  00000+0  00000-0 0  9992
2 24501  60.0000 120.0000 0000000   0.0000 120.0000  1.97017143    10
CTC2_L_00671005-04
1 24502U 26222WW  26070.40853009  .00000000  00000+0  00000-0 0  9990
2 24502  60.0000 120.0000 0000000   0.0000 156.0000  1.97017143    10
CTC2_L_00671005-05
1 24503U 25219TE  26070.40853009  .00000000  00000+0  00000-0 0  9996
2 24503  60.0000 120.0000 0000000   0.0000 192.0000  1.97017143    11
CTC2_L_00671005-06
1 24504U 22620V   26070.40853009  .00000000  00000+0  00000-0 0  9990
2 24504  60.0000 120.0000 0000000   0.0000 228.0000  1.97017143    12
CTC2_L_00671005-07
1 24505U 24087GJ  26070.40853009  .00000000  00000+0  00000-0 0  9990
2 24505  60.0000 120.0000 0000000   0.0000 264.0000  1.97017143    13
CTC2_L_00671005-08
1 24506U 23085WP  26070.40853009  .00000000  00000+0  00000-0 0  9998
2 24506  60.0000 120.0000 0000000   0.0000 300.0000  1.97017143    15
CTC2_L_00671005-09
1 24507U 25227VL  26070.40853009  .00000000  00000+0  00000-0 0  9999
2 24507  60.0000 120.0000 0000000   0.0000 336.0000  1.97017143    15
CTC2_L_00671005-10
1 24508U 25079TF  26070.40853009  .00000000  00000+0  00000-0 0  9995
2 24508  60.0000 120.0000 0000000   0.0000  12.0000  1.97017143    17
CTC2_L_00671006-01
1 24509U 22520LV  26070.40853009  .00000000  00000+0  00000-0 0  9994
2 24509  60.0000 150.0000 0000000   0.0000  60.0000  1.97017143    14
CTC2_L_00671006-02
1 24510U 22043TW  26070.40853009  .00000000  00000+0  00000-0 0  9996
2 24510  60.0000 150.0000 0000000   0.0000  96.0000  1.97017143    15
CTC2_L_00671006-03
1 24511U 25696BZ  26070.40853009  .00000000  00000+0  00000-0 0  9994
2 24511  60.0000 150.0000 0000000   0.0000 132.0000  1.97017143    17
CTC2_L_00671006-04
1 24512U 22432IF  26070.40853009  .00000000  00000+0  00000-0 0  9990
2 24512  60.0000 150.0000 0000000   0.0000 168.0000  1.97017143    17
CTC2_L_00671006-05
1 24513U 24922UQ  26070.40853009  .00000000  00000+0  00000-0 0  9997
2 24513  60.0000 150.0000 0000000   0.0000 204.0000  1.97017143    19
CTC2_L_00671006-06
1 24514U 23969AC  26070.40853009  .00000000  00000+0  00000-0 0  9998
2 24514  60.0000 150.0000 0000000   0.0000 240.0000  1.97017143    10
CTC2_L_00671006-07
1 24515U 24965RG  26070.40853009  .00000000  00000+0  00000-0 0  9996
2 24515  60.0000 150.0000 0000000   0.0000 276.0000  1.97017143    10
CTC2_L_00671006-08
1 24516U 25940SZ  26070.40853009  .00000000  00000+0  00000-0 0  9991
2 24516  60.0000 150.0000 0000000   0.0000 312.0000  1.97017143    12
CTC2_L_00671006-09
1 24517U 26599IL  26070.40853009  .00000000  00000+0  00000-0 0  9993
2 24517  60.0000 150.0000 0000000   0.0000 348.0000  1.97017143    12
CTC2_L_00671006-10
1 24518U 25516JM  26070.40853009  .00000000  00000+0  00000-0 0  9992
2 24518  60.0000 150.0000 0000000   0.0000  24.0000  1.97017143    14
CTC2_L_00671007-01
1 24519U 26791ZH  26070.40853009  .00000000  00000+0  00000-0 0  9999
2 24519  60.0000 180.0000 0000000   0.0000  72.0000  1.97017143    11
CTC2_L_00671007-02
1 24520U 22781PN  26070.40853009  .00000000  00000+0  00000-0 0  9996
2 24520  60.0000 180.0000 0000000   0.0000 108.0000  1.97017143    13
